[{"OBJECT_NAME":"STARLINK-6206","OBJECT_ID":"2023-083A","EPOCH":"2026-03-09T01:50:48.375456","MEAN_MOTION":15.02539468,"ECCENTRICITY":0.00014325,"INCLINATION":43.0017,"RA_OF_ASC_NODE":85.5011,"ARG_OF_PERICENTER":272.9403,"MEAN_ANOMALY":87.1275,"EPHEMERIS_TYPE":0,"CLASSIFICATION_TYPE":"U","NORAD_CAT_ID":56876,"ELEMENT_SET_NO":999,"REV_AT_EPOCH":15157,"BSTAR":-2.0459368e-5,"MEAN_MOTION_DOT":-4.8e-6,"MEAN_MOTION_DDOT":0},{"OBJECT_NAME":"IMS-1","OBJECT_ID":"2008-021D","EPOCH":"2026-03-09T22:27:26.707392","MEAN_MOTION":15.03517095,"ECCENTRICITY":0.00068607,"INCLINATION":97.9418,"RA_OF_ASC_NODE":52.6663,"ARG_OF_PERICENTER":75.5168,"MEAN_ANOMALY":284.6817,"EPHEMERIS_TYPE":0,"CLASSIFICATION_TYPE":"U","NORAD_CAT_ID":32786,"ELEMENT_SET_NO":999,"REV_AT_EPOCH":96828,"BSTAR":0.00046947389,"MEAN_MOTION_DOT":6.344e-5,"MEAN_MOTION_DDOT":0}]
